{
    "links": {
        "self": "http://www.neowsapp.com/rest/v1/neo/3842687?api_key=iIulBulltgU6a56xZRHN4H3l9WmuAYTsLGpBGhQ2"
    },
    "id": "3842687",
    "neo_reference_id": "3842687",
    "name": "(2019 LT)",
    "designation": "2019 LT",
    "nasa_jpl_url": "http://ssd.jpl.nasa.gov/sbdb.cgi?sstr=3842687",
    "absolute_magnitude_h": 23.4,
    "estimated_diameter": {
        "kilometers": {
            "estimated_diameter_min": 0.0555334912,
            "estimated_diameter_max": 0.1241766613
        },
        "meters": {
            "estimated_diameter_min": 55.5334911581,
            "estimated_diameter_max": 124.1766612574
        },
        "miles": {
            "estimated_diameter_min": 0.0345069009,
            "estimated_diameter_max": 0.0771597762
        },
        "feet": {
            "estimated_diameter_min": 182.1964991311,
            "estimated_diameter_max": 407.4037573197
        }
    },
    "is_potentially_hazardous_asteroid": false,
    "close_approach_data": [
        {
            "close_approach_date": "2012-10-07",
            "close_approach_date_full": "2012-Oct-07 17:27",
            "epoch_date_close_approach": 1349630820000,
            "relative_velocity": {
                "kilometers_per_second": "7.4504755484",
                "kilometers_per_hour": "26821.7119742804",
                "miles_per_hour": "16665.9687542411"
            },
            "miss_distance": {
                "astronomical": "0.7726701308",
                "lunar": "300.5686808812",
                "kilometers": "115589805.780301396",
                "miles": "71824174.7806394248"
            },
            "orbiting_body": "Juptr"
        },
        {
            "close_approach_date": "2019-06-01",
            "close_approach_date_full": "2019-Jun-01 19:07",
            "epoch_date_close_approach": 1559416020000,
            "relative_velocity": {
                "kilometers_per_second": "17.6523187107",
                "kilometers_per_hour": "63548.3473585733",
                "miles_per_hour": "39486.4717239979"
            },
            "miss_distance": {
                "astronomical": "0.1059879502",
                "lunar": "41.2293126278",
                "kilometers": "15855571.595586074",
                "miles": "9852195.3371288612"
            },
            "orbiting_body": "Earth"
        }
    ],
    "orbital_data": {
        "orbit_id": "6",
        "orbit_determination_date": "2019-08-09 07:02:36",
        "first_observation_date": "2019-05-31",
        "last_observation_date": "2019-06-21",
        "data_arc_in_days": 21,
        "observations_used": 40,
        "orbit_uncertainty": "7",
        "minimum_orbit_intersection": ".104349",
        "jupiter_tisserand_invariant": "2.909",
        "epoch_osculation": "2459000.5",
        "eccentricity": ".5974359744852648",
        "semi_major_axis": "2.752184318513813",
        "inclination": "29.20785153869961",
        "ascending_node_longitude": "251.2850230173011",
        "orbital_period": "1667.687604802026",
        "perihelion_distance": "1.107930398219449",
        "perihelion_argument": "346.262494478345",
        "aphelion_distance": "4.396438238808178",
        "perihelion_time": "2458625.111719293022",
        "mean_anomaly": "81.03423007125761",
        "mean_motion": ".2158677674184286",
        "equinox": "J2000",
        "orbit_class": {
            "orbit_class_type": "AMO",
            "orbit_class_description": "Near-Earth asteroid orbits similar to that of 1221 Amor",
            "orbit_class_range": "1.017 AU < q (perihelion) < 1.3 AU"
        }
    },
    "is_sentry_object": false
}